[{"OBJECT_NAME":"SHIYAN-3 (SY-3)","OBJECT_ID":"2008-056A","EPOCH":"2026-03-09T16:28:21.411552","MEAN_MOTION":14.30765435,"ECCENTRICITY":0.00146908,"INCLINATION":98.6178,"RA_OF_ASC_NODE":96.1558,"ARG_OF_PERICENTER":69.2006,"MEAN_ANOMALY":291.0749,"EPHEMERIS_TYPE":0,"CLASSIFICATION_TYPE":"U","NORAD_CAT_ID":33433,"ELEMENT_SET_NO":999,"REV_AT_EPOCH":90457,"BSTAR":0.00010019007,"MEAN_MOTION_DOT":2.19e-6,"MEAN_MOTION_DDOT":0},{"OBJECT_NAME":"DMSP 5D-3 F18 DEB","OBJECT_ID":"2009-057D","EPOCH":"2026-03-09T23:15:15.871680","MEAN_MOTION":14.28007975,"ECCENTRICITY":0.00061214,"INCLINATION":98.6337,"RA_OF_ASC_NODE":60.59,"ARG_OF_PERICENTER":47.6418,"MEAN_ANOMALY":15.2512,"EPHEMERIS_TYPE":0,"CLASSIFICATION_TYPE":"U","NORAD_CAT_ID":35954,"ELEMENT_SET_NO":999,"REV_AT_EPOCH":84816,"BSTAR":0.0011224347,"MEAN_MOTION_DOT":2.742e-5,"MEAN_MOTION_DDOT":0}]
